OBJECT_NAME,OBJECT_ID,EPOCH,MEAN_MOTION,ECCENTRICITY,INCLINATION,RA_OF_ASC_NODE,ARG_OF_PERICENTER,MEAN_ANOMALY,EPHEMERIS_TYPE,CLASSIFICATION_TYPE,NORAD_CAT_ID,ELEMENT_SET_NO,REV_AT_EPOCH,BSTAR,MEAN_MOTION_DOT,MEAN_MOTION_DDOT
STARLINK-6035,2023-058G,2026-07-02T17:06:47.009376,15.05668298,.0002207,97.2836,181.9567,77.6142,282.5332,0,U,56323,999,17507,-.19619E-3,-.2887E-4,0
STARLINK-6034,2023-058H,2026-07-02T17:48:37.122912,15.05652725,.0002259,97.2825,183.1371,110.1275,250.0195,0,U,56324,999,17516,.14937E-4,.159E-5,0
STARLINK-5981,2023-058J,2026-07-02T17:38:40.974144,15.05655960,.0001737,97.2840,181.9279,94.6041,265.5385,0,U,56325,999,17543,-.95318E-4,-.1431E-4,0
STARLINK-5980,2023-058K,2026-07-02T18:06:36.246816,15.05614713,.0001752,97.2843,181.9008,67.2362,292.9051,0,U,56326,999,17508,.5758E-3,.8253E-4,0
STARLINK-5997,2023-058L,2026-07-02T17:34:41.990880,15.05658496,.0002015,97.2852,181.9321,91.6427,268.5032,0,U,56327,999,17543,-.12216E-3,-.1819E-4,0
STARLINK-5992,2023-058M,2026-07-02T17:04:44.763744,15.05650860,.0001496,97.2834,183.0253,84.8400,275.2998,0,U,56328,999,17550,-.69838E-4,-.1064E-4,0
STARLINK-5984,2023-058N,2026-07-02T10:22:00.469632,15.05656218,.0001137,97.2855,182.7928,39.4424,320.6887,0,U,56329,999,17546,.14095E-4,.147E-5,0
STARLINK-5991,2023-058Q,2026-07-02T17:58:37.576128,15.05600354,.0001288,97.2846,181.9085,82.6237,277.5137,0,U,56331,999,17543,.83865E-3,.12048E-3,0
STARLINK-5093,2023-058R,2026-07-02T17:26:43.414368,15.05638239,.0001951,97.2834,181.9390,94.5331,265.6120,0,U,56332,999,17543,.2264E-3,.3211E-4,0
STARLINK-5553,2023-058S,2026-07-02T17:24:40.946688,15.05656874,.0002411,97.2848,183.0078,97.6784,262.4717,0,U,56333,999,17550,-.44695E-4,-.701E-5,0
STARLINK-5548,2023-058T,2026-07-02T17:44:37.699872,15.05658263,.0002088,97.2834,183.1424,87.0739,273.0727,0,U,56334,999,17551,.14972E-3,.2105E-4,0
STARLINK-5559,2023-058U,2026-07-02T18:04:33.652992,15.05656933,.0001851,97.2853,183.1233,95.5087,264.6352,0,U,56335,999,17551,.30855E-4,.389E-5,0
STARLINK-5562,2023-058V,2026-07-02T17:18:45.840096,15.05591221,.0002274,97.2837,181.9464,105.6972,254.4506,0,U,56336,999,17543,.87139E-3,.12519E-3,0
STARLINK-5561,2023-058W,2026-07-02T17:42:40.004064,15.05655934,.0001893,97.2839,181.9247,95.2824,264.8620,0,U,56337,999,17543,.18345E-4,.208E-5,0
STARLINK-5554,2023-058X,2026-07-02T17:02:47.918112,15.05668634,.0002244,97.2838,181.9614,86.1366,274.0118,0,U,56338,999,17543,-.25053E-3,-.3671E-4,0
STARLINK-5552,2023-058Y,2026-07-02T15:11:09.286368,15.05659830,.0002235,97.2855,181.9139,71.3513,288.7957,0,U,56339,999,17542,-.40078E-4,-.635E-5,0
STARLINK-5540,2023-058Z,2026-07-02T17:16:42.242304,15.05654615,.0002101,97.2839,183.0155,89.8848,270.2620,0,U,56340,999,17550,.11043E-4,.103E-5,0
STARLINK-5543,2023-058AA,2026-07-02T17:30:42.158304,15.05696599,.0002511,97.2843,181.9360,95.6345,264.5169,0,U,56341,999,17542,-.43966E-3,-.6402E-4,0
STARLINK-5955,2023-058AB,2026-07-02T10:18:02.605248,15.05604266,.0002161,97.2845,182.7967,84.5022,275.6452,0,U,56342,999,17546,.78443E-3,.11266E-3,0
STARLINK-5976,2023-058AC,2026-07-02T17:20:42.603648,15.05580873,.0002265,97.2840,183.0123,105.9093,254.2384,0,U,56343,999,17550,.10213E-2,.14682E-3,0
STARLINK-5974,2023-058AD,2026-07-02T18:00:35.432640,15.05593065,.0001166,97.2846,183.1274,92.8478,267.2883,0,U,56344,999,17551,.8856E-3,.12724E-3,0
STARLINK-5979,2023-058AE,2026-07-02T06:44:43.697184,15.05655897,.0002136,97.2876,181.4755,89.1311,271.0162,0,U,56345,999,17536,.28074E-4,.349E-5,0
STARLINK-5837,2023-058AF,2026-07-02T10:28:06.549024,15.05504350,.0002162,97.2848,181.7215,76.1203,284.0264,0,U,56346,999,17539,.21634E-2,.31174E-3,0
STARLINK-5829,2023-058AG,2026-07-02T15:13:05.884032,15.05650029,.0001784,97.2843,182.9805,65.9383,294.2031,0,U,56347,999,17549,.48975E-4,.65E-5,0
STARLINK-5888,2023-058AH,2026-07-02T10:16:03.667872,15.05658352,.0001164,97.2852,181.5801,82.0172,278.1188,0,U,56348,999,17538,-.16334E-4,-.292E-5,0
STARLINK-5887,2023-058AJ,2026-07-02T16:58:48.646272,15.05653432,.0001446,97.2834,181.9666,100.6510,259.4880,0,U,56349,999,17543,-.14446E-4,-.265E-5,0
STARLINK-5886,2023-058AK,2026-07-02T18:12:32.023008,15.05654238,.0001211,97.2859,183.1159,100.2494,259.8870,0,U,56350,999,17551,.37303E-4,.482E-5,0
STARLINK-5891,2023-058AL,2026-07-02T17:12:42.915168,15.05666125,.0002224,97.2841,183.0207,70.3175,289.8293,0,U,56351,999,17550,-.2286E-3,-.3354E-4,0
STARLINK-5885,2023-058AM,2026-07-02T17:46:40.712736,15.05602912,.0001367,97.2863,181.9225,82.7531,277.3852,0,U,56352,999,17543,.62266E-3,.8927E-4,0
STARLINK-5874,2023-058AN,2026-07-02T13:03:32.583168,15.05665406,.0001981,97.2834,181.7322,50.1404,309.9998,0,U,56353,999,17540,-.14019E-3,-.2079E-4,0
STARLINK-5877,2023-058AP,2026-07-02T17:40:37.381728,15.05654840,.0001813,97.2846,182.9954,92.2064,267.9371,0,U,56354,999,17550,.40129E-4,.523E-5,0
STARLINK-5533,2023-058AQ,2026-07-02T18:00:02.000160,15.64526272,.0001488,97.5233,185.3601,87.1340,171.4033,0,U,56355,999,584,.38457E-2,.38722E-2,0
STARLINK-5535,2023-058AR,2026-07-02T17:08:44.027808,15.05654652,.0002493,97.2836,183.0247,81.7889,278.3621,0,U,56356,999,17550,-.23708E-4,-.398E-5,0
STARLINK-5538,2023-058AS,2026-07-02T17:56:35.854080,15.05624470,.0001655,97.2841,183.1332,82.1492,277.9923,0,U,56357,999,17551,.43862E-3,.6273E-4,0
STARLINK-5482,2023-058AT,2026-07-02T16:54:49.255200,15.05666195,.0001748,97.2838,181.9709,75.6518,284.4903,0,U,56358,999,17543,-.12498E-3,-.186E-4,0
STARLINK-5551,2023-058AU,2026-07-02T18:10:35.499648,15.05671524,.0001597,97.2857,181.9016,86.9350,273.2060,0,U,56359,999,17543,-.95699E-4,-.1438E-4,0
STARLINK-5549,2023-058AV,2026-07-02T10:30:02.005344,15.05525684,.000278,97.2868,182.7885,90.1544,270.0002,0,U,56360,999,17546,.18446E-2,.2657E-3,0
STARLINK-5550,2023-058AW,2026-07-02T17:10:46.524000,15.05654352,.0002067,97.2831,181.9568,89.2300,270.9165,0,U,56361,999,17543,.1859E-4,.212E-5,0
STARLINK-5972,2023-058AX,2026-07-02T17:00:45.358848,15.05656238,.0001917,97.2833,183.0321,93.1508,266.9939,0,U,56362,999,17550,-.29644E-4,-.484E-5,0
O3B MPOWER F4,2023-059A,2026-07-02T13:35:00.979584,5.00115487,.0007713,0.0631,352.0594,113.8170,254.2080,0,U,56367,999,5937,0,-.16E-6,0
O3B MPOWER F3,2023-059B,2026-07-02T14:22:45.640704,5.00116551,.0006701,0.0638,351.4614,107.4159,261.1979,0,U,56368,999,5550,0,-.16E-6,0
VIASAT-3 F1,2023-060A,2026-07-02T15:16:13.435104,1.00272672,.0000761,0.0198,6.0968,100.5919,314.0664,0,U,56370,999,1158,0,0,0
ARCTURUS,2023-060B,2026-07-02T19:06:31.769856,1.00598597,.000048,2.8140,79.7449,159.6234,52.5895,0,U,56371,999,1161,0,-.236E-5,0
GS-1,2023-060C,2026-07-02T19:12:48.404736,1.00270238,.0003607,2.7650,79.6487,280.2422,298.5838,0,U,56372,999,769,0,-.214E-5,0
STARLINK-6156,2023-061A,2026-07-02T16:43:55.176096,15.27567101,.0001357,42.9996,268.8237,302.3971,57.6749,0,U,56374,999,17543,.13012E-3,.3319E-4,0
STARLINK-6158,2023-061B,2026-07-02T14:03:08.324064,15.27584114,.0001282,43.0014,268.8485,277.0265,83.0441,0,U,56375,999,17432,-.41865E-4,-.1414E-4,0
STARLINK-6188,2023-061C,2026-07-02T13:48:20.104416,15.27578077,.0001748,43.0017,268.7723,274.9008,85.1644,0,U,56376,999,17432,.21576E-4,.331E-5,0
STARLINK-6189,2023-061D,2026-07-02T15:19:00.073056,15.27578453,.0002019,43.0023,269.2395,277.5102,82.5520,0,U,56377,999,17432,.12051E-4,.69E-6,0
STARLINK-6191,2023-061E,2026-07-02T15:31:44.618016,15.27577612,.0001354,43.0010,268.4466,270.8127,89.2570,0,U,56378,999,17433,.85584E-5,-.27E-6,0
STARLINK-6157,2023-061F,2026-07-02T14:06:50.545728,15.27573323,.0001265,43.0015,268.8698,265.8910,94.1797,0,U,56379,999,17542,-.10066E-4,-.539E-5,0
STARLINK-6159,2023-061H,2026-07-02T16:30:57.163104,15.27578369,.0001512,43.0023,268.7568,293.4868,66.5825,0,U,56381,999,17433,.23484E-4,.384E-5,0
STARLINK-6160,2023-061J,2026-07-02T16:23:33.029952,15.27576470,.0001741,43.0035,268.7166,279.9631,80.1024,0,U,56382,999,17433,.5347E-4,.1209E-4,0
STARLINK-6166,2023-061K,2026-07-02T16:18:00.351072,15.27575616,.0001208,43.0021,268.6885,273.2313,86.8400,0,U,56383,999,17433,.56595E-6,-.246E-5,0
STARLINK-6153,2023-061L,2026-07-02T13:06:02.146752,15.27543148,.0002086,43.0023,269.4041,273.5306,86.5307,0,U,56384,999,17431,-.14141E-3,-.4147E-4,0
STARLINK-6173,2023-061M,2026-07-02T14:30:54.041760,15.27572466,.0001093,43.0017,268.9877,265.8445,94.2281,0,U,56385,999,17432,-.10668E-3,-.3196E-4,0
STARLINK-5836,2023-061N,2026-07-02T16:25:24.657024,15.27574942,.0000677,42.9999,268.7253,300.0249,60.0535,0,U,56386,999,17433,-.15465E-4,-.687E-5,0
STARLINK-6178,2023-061P,2026-07-02T15:33:35.680032,15.27578805,.00014,43.0015,268.4593,273.0909,86.9782,0,U,56387,999,17433,.33103E-5,-.171E-5,0
STARLINK-6176,2023-061Q,2026-07-02T15:06:02.682144,15.27558675,.0001775,43.0049,269.1541,276.4422,83.6228,0,U,56388,999,17432,.11709E-3,.2959E-4,0
STARLINK-6145,2023-061R,2026-07-02T14:45:41.920128,15.27573307,.0001347,43.0048,269.0608,288.9569,71.1136,0,U,56389,999,17432,-.99122E-5,-.535E-5,0
STARLINK-6298,2023-061T,2026-07-02T13:53:53.124576,15.27577119,.0001322,43.0034,268.7932,271.8590,88.2110,0,U,56391,999,17432,.1066E-4,.31E-6,0
STARLINK-6301,2023-061U,2026-07-02T15:30:07.329024,15.27574992,.0001178,43.0024,258.0092,273.3834,86.6883,0,U,56392,999,17445,-.43859E-5,-.383E-5,0
STARLINK-6303,2023-061V,2026-07-02T14:25:21.005184,15.27571767,.0001318,43.0017,268.9565,268.9653,91.1048,0,U,56393,999,17432,-.30007E-4,-.1087E-4,0
STARLINK-6305,2023-061W,2026-07-02T16:08:49.199424,15.27548638,.0002095,43.0027,257.3563,284.1632,75.8987,0,U,56394,999,17446,-.74865E-4,-.232E-4,0
STARLINK-6273,2023-061X,2026-07-02T14:21:52.763040,15.27569224,.0001787,43.0069,258.5036,273.0655,86.9992,0,U,56395,999,17515,.16323E-3,.423E-4,0
STARLINK-6302,2023-061Y,2026-07-02T16:25:25.509792,15.27576996,.0001335,43.0001,257.4362,273.4679,86.6020,0,U,56396,999,16959,.19913E-4,.286E-5,0
STARLINK-6271,2023-061Z,2026-07-02T14:10:46.155072,15.27573190,.0001424,43.0039,258.4500,287.9959,72.0738,0,U,56397,999,17444,-.80991E-5,-.485E-5,0
